{
"type": "FeatureCollection",
"name": "balai_bomba_negeri_selangor_final",
"crs": { "type": "name", "properties": { "name": "urn:ogc:def:crs:OGC:1.3:CRS84" } },
"features": [
{ "type": "Feature", "properties": { "BIL": 1, "ZON": "Zon 1", "NAMA_ZON": "Shah Alam", "NAMA_BBP": "BBP Shah Alam", "KATEGORI": "BBP / Pejabat Zon", "LON_WGS84": 101.518, "LAT_WGS84": 3.0738, "X_CASSINI": -20475.12, "Y_CASSINI": -11081.64, "GEO_CONF": "SEDERHANA", "STATUS": "PERLU_SEMAK_LOKASI", "LONGITUDE": 101.5210756, "LATITUDE": 3.0605558, "ID": 1 }, "geometry": { "type": "Point", "coordinates": [ 101.521075561249134, 3.060555818608977 ] } },
{ "type": "Feature", "properties": { "BIL": 2, "ZON": "Zon 1", "NAMA_ZON": "Shah Alam", "NAMA_BBP": "BBP Subang Jaya", "KATEGORI": "BBP", "LON_WGS84": 101.59, "LAT_WGS84": 3.0565, "X_CASSINI": -12448.98, "Y_CASSINI": -12993.4, "GEO_CONF": "SEDERHANA", "STATUS": "PERLU_SEMAK_LOKASI", "LONGITUDE": 101.5848241, "LATITUDE": 3.0737937, "ID": 2 }, "geometry": { "type": "Point", "coordinates": [ 101.584824087904266, 3.073793681686229 ] } },
{ "type": "Feature", "properties": { "BIL": 3, "ZON": "Zon 1", "NAMA_ZON": "Shah Alam", "NAMA_BBP": "BBP Bukit Jelutong", "KATEGORI": "BBP", "LON_WGS84": 101.54, "LAT_WGS84": 3.1035, "X_CASSINI": -18041.17, "Y_CASSINI": -7797.155, "GEO_CONF": "SEDERHANA", "STATUS": "PERLU_SEMAK_LOKASI", "LONGITUDE": 101.5455869, "LATITUDE": 3.1100966, "ID": 3 }, "geometry": { "type": "Point", "coordinates": [ 101.545586926076041, 3.110096582136077 ] } },
{ "type": "Feature", "properties": { "BIL": 4, "ZON": "Zon 2", "NAMA_ZON": "Petaling Jaya", "NAMA_BBP": "BBP Petaling Jaya", "KATEGORI": "BBP", "LON_WGS84": 101.645, "LAT_WGS84": 3.107, "X_CASSINI": -6391.977, "Y_CASSINI": -7407.889, "GEO_CONF": "SEDERHANA", "STATUS": "PERLU_SEMAK_LOKASI", "LONGITUDE": 101.6435065, "LATITUDE": 3.097529, "ID": 4 }, "geometry": { "type": "Point", "coordinates": [ 101.643506518497276, 3.097528973247088 ] } },
{ "type": "Feature", "properties": { "BIL": 5, "ZON": "Zon 2", "NAMA_ZON": "Petaling Jaya", "NAMA_BBP": "BBP Damansara", "KATEGORI": "BBP", "LON_WGS84": 101.625, "LAT_WGS84": 3.133, "X_CASSINI": -8615.761, "Y_CASSINI": -4533.366, "GEO_CONF": "SEDERHANA", "STATUS": "PERLU_SEMAK_LOKASI", "LONGITUDE": 101.6231722, "LATITUDE": 3.1257186, "ID": 5 }, "geometry": { "type": "Point", "coordinates": [ 101.62317223508478, 3.125718567098182 ] } },
{ "type": "Feature", "properties": { "BIL": 6, "ZON": "Zon 2", "NAMA_ZON": "Petaling Jaya", "NAMA_BBP": "BBP Puchong", "KATEGORI": "BBP / Pejabat Zon", "LON_WGS84": 101.616, "LAT_WGS84": 3.025, "X_CASSINI": -9613.608, "Y_CASSINI": -16476.05, "GEO_CONF": "SEDERHANA", "STATUS": "PERLU_SEMAK_LOKASI", "LONGITUDE": 101.61811, "LATITUDE": 3.0333143, "ID": 6 }, "geometry": { "type": "Point", "coordinates": [ 101.618109994351371, 3.033314288684537 ] } },
{ "type": "Feature", "properties": { "BIL": 7, "ZON": "Zon 2", "NAMA_ZON": "Petaling Jaya", "NAMA_BBP": "BBP Sungai Buloh", "KATEGORI": "BBP", "LON_WGS84": 101.584, "LAT_WGS84": 3.2195, "X_CASSINI": -13208.23, "Y_CASSINI": 5030.717, "GEO_CONF": "SEDERHANA", "STATUS": "PERLU_SEMAK_LOKASI", "LONGITUDE": 101.5606701, "LATITUDE": 3.2015072, "ID": 7 }, "geometry": { "type": "Point", "coordinates": [ 101.560670089305319, 3.201507205615874 ] } },
{ "type": "Feature", "properties": { "BIL": 8, "ZON": "Zon 3", "NAMA_ZON": "Klang", "NAMA_BBP": "BBP Pelabuhan Klang", "KATEGORI": "BBP / Pejabat Zon", "LON_WGS84": 101.397, "LAT_WGS84": 3.0, "X_CASSINI": -33958.81, "Y_CASSINI": -19243.11, "GEO_CONF": "SEDERHANA", "STATUS": "PERLU_SEMAK_LOKASI", "LONGITUDE": 101.4088633, "LATITUDE": 3.0122188, "ID": 8 }, "geometry": { "type": "Point", "coordinates": [ 101.408863340260964, 3.012218835283457 ] } },
{ "type": "Feature", "properties": { "BIL": 9, "ZON": "Zon 3", "NAMA_ZON": "Klang", "NAMA_BBP": "BBP Klang Selatan", "KATEGORI": "BBP", "LON_WGS84": 101.449, "LAT_WGS84": 3.044, "X_CASSINI": -28178.35, "Y_CASSINI": -14377.53, "GEO_CONF": "SEDERHANA", "STATUS": "PERLU_SEMAK_LOKASI", "LONGITUDE": 101.4472861, "LATITUDE": 3.0426286, "ID": 9 }, "geometry": { "type": "Point", "coordinates": [ 101.447286138708108, 3.042628599027589 ] } },
{ "type": "Feature", "properties": { "BIL": 10, "ZON": "Zon 3", "NAMA_ZON": "Klang", "NAMA_BBP": "BBP Klang Utara", "KATEGORI": "BBP", "LON_WGS84": 101.41, "LAT_WGS84": 3.13, "X_CASSINI": -32513.91, "Y_CASSINI": -4868.025, "GEO_CONF": "SEDERHANA", "STATUS": "PERLU_SEMAK_LOKASI", "LONGITUDE": 101.4432814, "LATITUDE": 3.0606319, "ID": 10 }, "geometry": { "type": "Point", "coordinates": [ 101.443281439716159, 3.060631853725634 ] } },
{ "type": "Feature", "properties": { "BIL": 11, "ZON": "Zon 3", "NAMA_ZON": "Klang", "NAMA_BBP": "BBP Kapar", "KATEGORI": "BBP", "LON_WGS84": 101.375, "LAT_WGS84": 3.137, "X_CASSINI": -36404.31, "Y_CASSINI": -4093.995, "GEO_CONF": "SEDERHANA", "STATUS": "PERLU_SEMAK_LOKASI", "LONGITUDE": 101.4114988, "LATITUDE": 3.1355094, "ID": 11 }, "geometry": { "type": "Point", "coordinates": [ 101.411498770174589, 3.13550936179108 ] } },
{ "type": "Feature", "properties": { "BIL": 12, "ZON": "Zon 3", "NAMA_ZON": "Klang", "NAMA_BBP": "BBP Andalas", "KATEGORI": "BBP", "LON_WGS84": 101.447, "LAT_WGS84": 3.01, "X_CASSINI": -28400.47, "Y_CASSINI": -18137.17, "GEO_CONF": "SEDERHANA", "STATUS": "PERLU_SEMAK_LOKASI", "LONGITUDE": 101.4500367, "LATITUDE": 3.0186768, "ID": 12 }, "geometry": { "type": "Point", "coordinates": [ 101.450036722663668, 3.018676764106893 ] } },
{ "type": "Feature", "properties": { "BIL": 13, "ZON": "Zon 3", "NAMA_ZON": "Klang", "NAMA_BBP": "BBP Pulau Indah", "KATEGORI": "BBP", "LON_WGS84": 101.33, "LAT_WGS84": 2.95, "X_CASSINI": -41407.36, "Y_CASSINI": -24771.81, "GEO_CONF": "SEDERHANA", "STATUS": "PERLU_SEMAK_LOKASI", "LONGITUDE": 101.3532004, "LATITUDE": 2.9386201, "ID": 13 }, "geometry": { "type": "Point", "coordinates": [ 101.353200378878427, 2.938620128536741 ] } },
{ "type": "Feature", "properties": { "BIL": 14, "ZON": "Zon 4", "NAMA_ZON": "Hulu Langat", "NAMA_BBP": "BBP Pandan Indah", "KATEGORI": "BBP / Pejabat Zon", "LON_WGS84": 101.753, "LAT_WGS84": 3.13, "X_CASSINI": 5612.094, "Y_CASSINI": -4861.035, "GEO_CONF": "SEDERHANA", "STATUS": "PERLU_SEMAK_LOKASI", "LONGITUDE": 101.7490747, "LATITUDE": 3.1282801, "ID": 14 }, "geometry": { "type": "Point", "coordinates": [ 101.74907471280909, 3.128280066553099 ] } },
{ "type": "Feature", "properties": { "BIL": 15, "ZON": "Zon 4", "NAMA_ZON": "Hulu Langat", "NAMA_BBP": "BBP Ampang", "KATEGORI": "BBP", "LON_WGS84": 101.762, "LAT_WGS84": 3.1479, "X_CASSINI": 6600.664, "Y_CASSINI": -2881.307, "GEO_CONF": "SEDERHANA", "STATUS": "PERLU_SEMAK_LOKASI", "LONGITUDE": 101.763235, "LATITUDE": 3.1455484, "ID": 15 }, "geometry": { "type": "Point", "coordinates": [ 101.763234970032087, 3.145548442552432 ] } },
{ "type": "Feature", "properties": { "BIL": 16, "ZON": "Zon 4", "NAMA_ZON": "Hulu Langat", "NAMA_BBP": "BBP Kajang", "KATEGORI": "BBP", "LON_WGS84": 101.789, "LAT_WGS84": 2.993, "X_CASSINI": 9619.304, "Y_CASSINI": -20009.06, "GEO_CONF": "SEDERHANA", "STATUS": "PERLU_SEMAK_LOKASI", "LONGITUDE": 101.7939286, "LATITUDE": 2.989302, "ID": 16 }, "geometry": { "type": "Point", "coordinates": [ 101.793928614258206, 2.98930200871058 ] } },
{ "type": "Feature", "properties": { "BIL": 17, "ZON": "Zon 4", "NAMA_ZON": "Hulu Langat", "NAMA_BBP": "BBP Bangi", "KATEGORI": "BBP", "LON_WGS84": 101.756, "LAT_WGS84": 2.96, "X_CASSINI": 5951.952, "Y_CASSINI": -23659.46, "GEO_CONF": "SEDERHANA", "STATUS": "PERLU_SEMAK_LOKASI", "LONGITUDE": 101.7630307, "LATITUDE": 2.9369022, "ID": 17 }, "geometry": { "type": "Point", "coordinates": [ 101.763030677808615, 2.936902194369341 ] } },
{ "type": "Feature", "properties": { "BIL": 18, "ZON": "Zon 4", "NAMA_ZON": "Hulu Langat", "NAMA_BBP": "BBP Semenyih", "KATEGORI": "BBP", "LON_WGS84": 101.855, "LAT_WGS84": 2.9341, "X_CASSINI": 16936.94, "Y_CASSINI": -26519.39, "GEO_CONF": "SEDERHANA", "STATUS": "PERLU_SEMAK_LOKASI", "LONGITUDE": 101.8580832, "LATITUDE": 2.9322042, "ID": 18 }, "geometry": { "type": "Point", "coordinates": [ 101.858083210287006, 2.932204244182552 ] } },
{ "type": "Feature", "properties": { "BIL": 19, "ZON": "Zon 4", "NAMA_ZON": "Hulu Langat", "NAMA_BBP": "BBP Serdang", "KATEGORI": "BBP", "LON_WGS84": 101.716, "LAT_WGS84": 2.99, "X_CASSINI": 1504.091, "Y_CASSINI": -20343.48, "GEO_CONF": "SEDERHANA", "STATUS": "PERLU_SEMAK_LOKASI", "LONGITUDE": 101.7094065, "LATITUDE": 3.0206844, "ID": 19 }, "geometry": { "type": "Point", "coordinates": [ 101.709406461604047, 3.020684440466144 ] } },
{ "type": "Feature", "properties": { "BIL": 20, "ZON": "Zon 4", "NAMA_ZON": "Hulu Langat", "NAMA_BBP": "BBP Bandar Tun Hussein Onn", "KATEGORI": "BBP", "LON_WGS84": 101.705, "LAT_WGS84": 3.03, "X_CASSINI": 279.952, "Y_CASSINI": -15920.68, "GEO_CONF": "SEDERHANA", "STATUS": "PERLU_SEMAK_LOKASI", "LONGITUDE": 101.705, "LATITUDE": 3.03, "ID": 20 }, "geometry": { "type": "Point", "coordinates": [ 101.705, 3.03 ] } },
{ "type": "Feature", "properties": { "BIL": 21, "ZON": "Zon 5", "NAMA_ZON": "KLIA", "NAMA_BBP": "BBP KLIA", "KATEGORI": "BBP / Pejabat Zon", "LON_WGS84": 101.71, "LAT_WGS84": 2.745, "X_CASSINI": 844.668, "Y_CASSINI": -47435.48, "GEO_CONF": "SEDERHANA", "STATUS": "PERLU_SEMAK_LOKASI", "LONGITUDE": 101.678518, "LATITUDE": 2.7924685, "ID": 21 }, "geometry": { "type": "Point", "coordinates": [ 101.678518011818952, 2.792468502439453 ] } },
{ "type": "Feature", "properties": { "BIL": 22, "ZON": "Zon 5", "NAMA_ZON": "KLIA", "NAMA_BBP": "BBP Cyberjaya", "KATEGORI": "BBP", "LON_WGS84": 101.656, "LAT_WGS84": 2.9213, "X_CASSINI": -5175.339, "Y_CASSINI": -27942.03, "GEO_CONF": "SEDERHANA", "STATUS": "PERLU_SEMAK_LOKASI", "LONGITUDE": 101.6568784, "LATITUDE": 2.9127916, "ID": 22 }, "geometry": { "type": "Point", "coordinates": [ 101.656878382757498, 2.912791611505614 ] } },
{ "type": "Feature", "properties": { "BIL": 23, "ZON": "Zon 5", "NAMA_ZON": "KLIA", "NAMA_BBP": "BBP Dengkil", "KATEGORI": "BBP", "LON_WGS84": 101.681, "LAT_WGS84": 2.86, "X_CASSINI": -2383.085, "Y_CASSINI": -34719.8, "GEO_CONF": "SEDERHANA", "STATUS": "PERLU_SEMAK_LOKASI", "LONGITUDE": 101.6733949, "LATITUDE": 2.8572785, "ID": 23 }, "geometry": { "type": "Point", "coordinates": [ 101.673394926770499, 2.857278543643648 ] } },
{ "type": "Feature", "properties": { "BIL": 24, "ZON": "Zon 5", "NAMA_ZON": "KLIA", "NAMA_BBP": "BBP Sepang", "KATEGORI": "BBP", "LON_WGS84": 101.75, "LAT_WGS84": 2.691, "X_CASSINI": 5294.156, "Y_CASSINI": -53405.48, "GEO_CONF": "SEDERHANA", "STATUS": "PERLU_SEMAK_LOKASI", "LONGITUDE": 101.7505499, "LATITUDE": 2.6884726, "ID": 24 }, "geometry": { "type": "Point", "coordinates": [ 101.750549875113222, 2.688472637254306 ] } },
{ "type": "Feature", "properties": { "BIL": 25, "ZON": "Zon 5", "NAMA_ZON": "KLIA", "NAMA_BBP": "BBP Banting", "KATEGORI": "BBP", "LON_WGS84": 101.503, "LAT_WGS84": 2.813, "X_CASSINI": -22172.93, "Y_CASSINI": -39920.42, "GEO_CONF": "SEDERHANA", "STATUS": "PERLU_SEMAK_LOKASI", "LONGITUDE": 101.5059542, "LATITUDE": 2.8145673, "ID": 25 }, "geometry": { "type": "Point", "coordinates": [ 101.505954226909452, 2.814567293426993 ] } },
{ "type": "Feature", "properties": { "BIL": 26, "ZON": "Zon 5", "NAMA_ZON": "KLIA", "NAMA_BBP": "BBP Telok Panglima Garang", "KATEGORI": "BBP", "LON_WGS84": 101.47, "LAT_WGS84": 2.836, "X_CASSINI": -25842.25, "Y_CASSINI": -37377.46, "GEO_CONF": "SEDERHANA", "STATUS": "PERLU_SEMAK_LOKASI", "LONGITUDE": 101.4833412, "LATITUDE": 2.8919566, "ID": 26 }, "geometry": { "type": "Point", "coordinates": [ 101.483341204188022, 2.891956630966356 ] } },
{ "type": "Feature", "properties": { "BIL": 27, "ZON": "Zon 6", "NAMA_ZON": "Rawang", "NAMA_BBP": "BBP Rawang", "KATEGORI": "BBP / Pejabat Zon", "LON_WGS84": 101.576, "LAT_WGS84": 3.321, "X_CASSINI": -14066.13, "Y_CASSINI": 16254.27, "GEO_CONF": "SEDERHANA", "STATUS": "PERLU_SEMAK_LOKASI", "LONGITUDE": 101.5611088, "LATITUDE": 3.3074061, "ID": 27 }, "geometry": { "type": "Point", "coordinates": [ 101.561108785588843, 3.307406064791152 ] } },
{ "type": "Feature", "properties": { "BIL": 28, "ZON": "Zon 6", "NAMA_ZON": "Rawang", "NAMA_BBP": "BBP Selayang", "KATEGORI": "BBP", "LON_WGS84": 101.65, "LAT_WGS84": 3.25, "X_CASSINI": -5840.185, "Y_CASSINI": 8405.02, "GEO_CONF": "SEDERHANA", "STATUS": "PERLU_SEMAK_LOKASI", "LONGITUDE": 101.655856, "LATITUDE": 3.2542567, "ID": 28 }, "geometry": { "type": "Point", "coordinates": [ 101.655855988878812, 3.254256710471831 ] } },
{ "type": "Feature", "properties": { "BIL": 29, "ZON": "Zon 6", "NAMA_ZON": "Rawang", "NAMA_BBP": "BBP Batu Arang", "KATEGORI": "BBP", "LON_WGS84": 101.472, "LAT_WGS84": 3.32, "X_CASSINI": -25624.04, "Y_CASSINI": 16142.12, "GEO_CONF": "SEDERHANA", "STATUS": "PERLU_SEMAK_LOKASI", "LONGITUDE": 101.4730753, "LATITUDE": 3.318449, "ID": 29 }, "geometry": { "type": "Point", "coordinates": [ 101.473075340032125, 3.318448967421157 ] } },
{ "type": "Feature", "properties": { "BIL": 30, "ZON": "Zon 6", "NAMA_ZON": "Rawang", "NAMA_BBP": "BBP Kuala Kubu Bharu", "KATEGORI": "BBP", "LON_WGS84": 101.66, "LAT_WGS84": 3.566, "X_CASSINI": -4738.589, "Y_CASSINI": 43348.42, "GEO_CONF": "SEDERHANA", "STATUS": "PERLU_SEMAK_LOKASI", "LONGITUDE": 101.6614257, "LATITUDE": 3.5514375, "ID": 30 }, "geometry": { "type": "Point", "coordinates": [ 101.661425660128884, 3.551437494207557 ] } },
{ "type": "Feature", "properties": { "BIL": 31, "ZON": "Zon 6", "NAMA_ZON": "Rawang", "NAMA_BBP": "BBP Bukit Sentosa", "KATEGORI": "BBP", "LON_WGS84": 101.602, "LAT_WGS84": 3.4, "X_CASSINI": -11178.56, "Y_CASSINI": 24990.59, "GEO_CONF": "SEDERHANA", "STATUS": "PERLU_SEMAK_LOKASI", "LONGITUDE": 101.5617907, "LATITUDE": 3.4014851, "ID": 31 }, "geometry": { "type": "Point", "coordinates": [ 101.561790672234849, 3.401485109447738 ] } },
{ "type": "Feature", "properties": { "BIL": 32, "ZON": "Zon 7", "NAMA_ZON": "Sabak Bernam", "NAMA_BBP": "BBP Sekinchan", "KATEGORI": "BBP / Pejabat Zon", "LON_WGS84": 101.101, "LAT_WGS84": 3.506, "X_CASSINI": -66848.56, "Y_CASSINI": 36714.2, "GEO_CONF": "SEDERHANA", "STATUS": "PERLU_SEMAK_LOKASI", "LONGITUDE": 101.0957856, "LATITUDE": 3.5168206, "ID": 32 }, "geometry": { "type": "Point", "coordinates": [ 101.095785569448296, 3.516820642505241 ] } },
{ "type": "Feature", "properties": { "BIL": 33, "ZON": "Zon 7", "NAMA_ZON": "Sabak Bernam", "NAMA_BBP": "BBP Sabak Bernam", "KATEGORI": "BBP", "LON_WGS84": 100.988, "LAT_WGS84": 3.769, "X_CASSINI": -79391.36, "Y_CASSINI": 65801.74, "GEO_CONF": "SEDERHANA", "STATUS": "PERLU_SEMAK_LOKASI", "LONGITUDE": 100.9832867, "LATITUDE": 3.7683052, "ID": 33 }, "geometry": { "type": "Point", "coordinates": [ 100.983286692338169, 3.768305212866906 ] } },
{ "type": "Feature", "properties": { "BIL": 34, "ZON": "Zon 7", "NAMA_ZON": "Sabak Bernam", "NAMA_BBP": "BBP Sungai Besar", "KATEGORI": "BBP", "LON_WGS84": 100.987, "LAT_WGS84": 3.674, "X_CASSINI": -79507.23, "Y_CASSINI": 55296.53, "GEO_CONF": "SEDERHANA", "STATUS": "PERLU_SEMAK_LOKASI", "LONGITUDE": 100.9937714, "LATITUDE": 3.6647464, "ID": 34 }, "geometry": { "type": "Point", "coordinates": [ 100.993771424830172, 3.664746370022298 ] } },
{ "type": "Feature", "properties": { "BIL": 35, "ZON": "Zon 7", "NAMA_ZON": "Sabak Bernam", "NAMA_BBP": "BBP Tanjung Karang", "KATEGORI": "BBP", "LON_WGS84": 101.183, "LAT_WGS84": 3.425, "X_CASSINI": -57739.28, "Y_CASSINI": 27754.9, "GEO_CONF": "SEDERHANA", "STATUS": "PERLU_SEMAK_LOKASI", "LONGITUDE": 101.1657541, "LATITUDE": 3.4233642, "ID": 35 }, "geometry": { "type": "Point", "coordinates": [ 101.165754059345616, 3.423364186716953 ] } },
{ "type": "Feature", "properties": { "BIL": 36, "ZON": "Zon 7", "NAMA_ZON": "Sabak Bernam", "NAMA_BBP": "BBP Kuala Selangor", "KATEGORI": "BBP", "LON_WGS84": 101.25, "LAT_WGS84": 3.341, "X_CASSINI": -50295.44, "Y_CASSINI": 18464.96, "GEO_CONF": "SEDERHANA", "STATUS": "PERLU_SEMAK_LOKASI", "LONGITUDE": 101.2542656, "LATITUDE": 3.3268618, "ID": 36 }, "geometry": { "type": "Point", "coordinates": [ 101.254265628555032, 3.326861792794997 ] } },
{ "type": "Feature", "properties": { "BIL": 37, "ZON": "Zon 7", "NAMA_ZON": "Sabak Bernam", "NAMA_BBP": "BBP Bestari Jaya", "KATEGORI": "BBP", "LON_WGS84": 101.417, "LAT_WGS84": 3.381, "X_CASSINI": -31736.6, "Y_CASSINI": 22887.04, "GEO_CONF": "SEDERHANA", "STATUS": "PERLU_SEMAK_LOKASI", "LONGITUDE": 101.4029724, "LATITUDE": 3.3786145, "ID": 37 }, "geometry": { "type": "Point", "coordinates": [ 101.402972410089646, 3.378614506727919 ] } }
]
}
